const data = [
"1 08513U 75123A   22077.14007479 -.00000092  00000+0  00000+0 0  9995",
"2 08513   6.7725 289.8348 0006725 204.4206 166.8375  1.00246622179383",
"1 09416U 76092A   22077.14077031  .00000004  00000+0  00000+0 0  9997",
"2 09416   7.4328 291.7778 0026539 356.7857   1.5484  1.00278093113774",
"1 10159U 77071A   22077.03528536 -.00000362  00000+0  00000+0 0  9998",
"2 10159   8.0460 294.3039 0007898 228.7140 135.1916  1.00306959161492",
"1 10987U 78073A   22077.16768247  .00000085  00000+0  00000+0 0  9990",
"2 10987   8.6613 297.6990 0008720   6.2979 345.9687  1.00208891104021",
"1 11343U 79035A   22076.67035542 -.00000149  00000+0  00000+0 0  9998",
"2 11343   9.1167 300.3820 0006469 152.6371  43.0140  1.00294445113785",
"1 11708U 80016A   22076.73454799  .00000130  00000+0  00000+0 0  9999",
"2 11708   9.4664 303.3593 0002196 159.9831  17.8707  1.00267475106591",
"1 12003U 80081A   22076.35653300 -.00000296  00000+0  00000+0 0  9991",
"2 12003   9.6475 305.2609 0008102 262.7287  42.0404  1.00342696107732",
"1 12351U 81027A   22076.80161875  .00000109  00000+0  00000+0 0  9991",
"2 12351   9.9743 305.8604 0081378 224.2561 312.3540  1.00374376106962",
"1 12618U 81069A   22076.80493303  .00000137  00000+0  00000+0 0  9998",
"2 12618  10.1832 308.7205 0004435 120.2056  70.8260  1.00262781 31770",
"1 12897U 81102A   22076.65077912 -.00000059  00000+0  00000+0 0  9996",
"2 12897  10.2671 309.6676 0005192 162.9239   6.8642  1.00293392101773",
"1 13669U 82113A   22076.50382722 -.00000181  00000+0  00000+0 0  9995",
"2 13669  12.2602 323.0449 0036671 250.9256 304.8324  0.97710318106363",
"1 13974U 83028A   22076.73995551 -.00000040  00000+0  00000+0 0  9999",
"2 13974  11.3684 319.2344 0004064  86.6762 104.4459  1.00254196153817",
"1 14307U 83088A   22075.93534205 -.00000187  00000+0  00000+0 0  9994",
"2 14307  12.4999 324.6110 0016976  42.1468 136.7876  0.98175619103695",
"1 14725U 84016A   22076.72896769 -.00000119  00000+0  00000+0 0  9999",
"2 14725  11.5578 322.9118 0005450 112.2648  79.2114  1.00299024102534",
"1 15057U 84063A   22076.72896769 -.00000140  00000+0  00000+0 0  9994",
"2 15057  11.6754 323.8998 0005274 132.6444  58.1084  1.00379841125533",
"1 15946U 85070A   22076.43666244  .00000111  00000+0  00000+0 0  9998",
"2 15946  12.1097 328.5095 0002294 104.8772  97.4604  1.00222208106650",
"1 16250U 85107A   22076.11003264 -.00000102  00000+0  00000+0 0  9991",
"2 16250  12.2280 329.8691 0011877 173.6382  61.6749  1.00182908136117",
"1 16497U 86007A   22076.14364089 -.00000223  00000+0  00000+0 0  9996",
"2 16497  13.0230 332.5406 0074392 159.8525  81.6208  0.98815056130518",
"1 17046U 86082A   22076.62136183 -.00000231  00000+0  00000+0 0  9994",
"2 17046  13.4262 336.4190 0012804 135.2688  72.9851  0.98462184127624",
"1 17611U 87028A   22076.54314918 -.00000151  00000+0  00000+0 0  9999",
"2 17611  15.4235 339.9589 0030561 130.0676  74.1634  0.95962408123411",
"1 18631U 87100A   22076.44976292  .00000101  00000+0  00000+0 0  9995",
"2 18631  13.5019 337.3778 0004076 100.1358 116.0169  1.00215912125512",
"1 19596U 88095A   22076.58660567 -.00000329  00000+0  00000+0 0  9993",
"2 19596  13.4596 341.5959 0006591 114.3622  63.1295  1.00299482106082",
"1 19928U 89030A   22076.25049440  .00000130  00000+0  00000+0 0  9996",
"2 19928  13.5907 343.3996 0020303 153.5739 158.4128  1.00249386119276",
"1 20083U 89048A   22077.19731130  .00000019  00000+0  00000+0 0  9993",
"2 20083  14.3266 346.4107 0022852 106.8511  43.3955  0.98707005115948",
"1 20367U 89098A   22076.70118674 -.00000301  00000+0  00000+0 0  9996",
"2 20367  14.1514 345.6848 0002364  89.2252  91.8550  1.00233375117468",
"1 20499U 90016A   22076.18151990 -.00000253  00000+0  00000+0 0  9990",
"2 20499  13.9178 346.3155 0004830 112.0036 107.3807  1.00248823117339",
"1 21016U 90112A   22076.92688080  .00000075  00000+0  00000+0 0  9991",
"2 21016  14.2040 349.5591 0008496  77.7968 135.0668  1.00262840114671",
"1 21038U 90116A   22075.89076880 -.00000040  00000+0  00000+0 0  9996",
"2 21038  14.2420 349.6413 0009444  88.7854 126.1510  1.00216078 31768",
"1 21132U 91014A   22076.13166830  .00000129  00000+0  00000+0 0  9999",
"2 21132  14.7549 349.2568 0005343  68.9536 197.4061  1.00209076113738",
"1 21821U 91087A   22075.76286828 -.00000370  00000+0  00000+0 0  9991",
"2 21821  14.4972 352.9190 0007591 101.0611 112.4906  1.00286916110743",
"1 22557U 93013A   22077.02341082  .00000049  00000+0  00000+0 0  9996",
"2 22557  14.6653 357.0816 0007507  91.2376 106.1099  1.00280398106122",
"1 22836U 93062A   22076.81417816 -.00000162  00000+0  00000+0 0  9992",
"2 22836  14.6925 359.0371 0003532  10.1507 180.3766  1.00270697 30438",
"1 22981U 94008A   22073.91079729 -.00000269  00000+0  00000+0 0  9997",
"2 22981  14.7638   0.2199 0004806  68.5661 164.0348  1.00315088102885",
"1 23010U 94012A   22076.92757859  .00000114  00000+0  00000+0 0  9995",
"2 23010  14.7289   0.1885 0006314  75.3357 118.4025  1.00258913102772",
"1 23448U 94087A   22076.81400372 -.00000153  00000+0  00000+0 0  9999",
"2 23448  14.6913   2.8849 0002814 195.7600 349.9422  1.00272426117377",
"1 25642U 99010A   22076.95042212  .00000116  00000+0  00000+0 0  9996",
"2 25642  15.1616  14.5375 0002558 320.5596 227.0969  1.00222107 84402",
"1 26477U 00049A   22076.88212674  .00000029  00000+0  00000+0 0  9993",
"2 26477  13.0730  19.1665 0006964  42.8417 132.4893  1.00211697 78856",
"1 26936U 01045A   22076.55229013 -.00000068  00000+0  00000+0 0  9993",
"2 26936  13.1879  25.4210 0013793 157.4909  55.6790  0.97744132 73424",
"1 28194U 04010A   22076.75033448 -.00000366  00000+0  00000+0 0  9994",
"2 28194  11.8648  32.3222 0001406 334.5050 198.8872  1.00324568 65844",
"1 32373U 07058A   22076.89372676 -.00000272  00000+0  00000+0 0  9993",
"2 32373   6.6934  64.6839 0005136 334.5260 217.9713  0.99397299 36963",
"1 34264U 09010A   22076.57514010 -.00000016  00000+0  00000+0 0  9995",
"2 34264   9.0472  54.8030 0015312 355.8445 224.1933  0.99816607 47673",
"1 36358U 10002A   22077.21507802 -.00000185  00000+0  00000+0 0  9994",
"2 36358   0.0842 258.1879 0001677 146.7859 293.1977  1.00272654 44443",
"1 39375U 13062A   22077.22132580  .00000156  00000+0  00000+0 0  9990",
"2 39375   2.0041  90.9158 0004093 111.6072  87.9565  1.00274570 30562",
];

export default data;
